NORAD_CAT_ID,OBJECT_NAME,OBJECT_TYPE,EPOCH,MEAN_MOTION,ECCENTRICITY,INCLINATION,RA_OF_ASC_NODE,ARG_OF_PERICENTER,MEAN_ANOMALY,BSTAR,MEAN_MOTION_DOT,MEAN_MOTION_DDOT,TLE_LINE0,TLE_LINE1,TLE_LINE2,SEMIMAJOR_AXIS,PERIOD,APOGEE,PERIGEE,DECAYED
52382.0,STARLINK-3799,PAYLOAD,2023-01-29 20:08:25,15.08835276,0.0002191,53.2129,243.6778,94.2493,265.8749,9.6626e-05,1.25e-05,0.0,0 STARLINK-3799,1 52382U 22045BD  23029.83918656  .00001250  00000-0  96626-4 0  9996,2 52382  53.2129 243.6778 0002191  94.2493 265.8749 15.08835276 44605,6917.895,95.438,541.276,538.244,0.0
52382.0,STARLINK-3799,PAYLOAD,2023-01-29 21:43:48,15.08836433,0.0002196,53.2129,243.3805,94.2216,265.9027,0.0001054,1.389e-05,0.0,0 STARLINK-3799,1 52382U 22045BD  23029.90542584  .00001389  00000-0  10540-3 0  9990,2 52382  53.2129 243.3805 0002196  94.2216 265.9027 15.08836433 44618,6917.891,95.438,541.275,538.237,0.0
52382.0,STARLINK-3799,PAYLOAD,2023-01-30 21:34:35,15.08841634,0.000219,53.2132,238.9188,94.45,265.6743,4.8567e-05,4.85e-06,0.0,0 STARLINK-3799,1 52382U 22045BD  23030.89902478  .00000485  00000-0  48567-4 0  9999,2 52382  53.2132 238.9188 0002190  94.4500 265.6743 15.08841634 44765,6917.875,95.437,541.255,538.225,0.0
52382.0,STARLINK-3799,PAYLOAD,2023-01-31 08:42:17,15.08839237,0.0002192,53.213,236.8375,94.7281,265.3962,4.1488e-05,3.72e-06,0.0,0 STARLINK-3799,1 52382U 22045BD  23031.36270652  .00000372  00000-0  41488-4 0  9994,2 52382  53.2130 236.8375 0002192  94.7281 265.3962 15.08839237 44833,6917.883,95.438,541.264,538.231,0.0
52382.0,STARLINK-3799,PAYLOAD,2023-01-31 19:49:59,15.08840333,0.0002174,53.213,234.756,94.2876,265.8364,3.0335e-05,1.95e-06,0.0,0 STARLINK-3799,1 52382U 22045BD  23031.82638622  .00000195  00000-0  30335-4 0  9992,2 52382  53.2130 234.7560 0002174  94.2876 265.8364 15.08840333 44909,6917.879,95.438,541.248,538.24,0.0
52382.0,STARLINK-3799,PAYLOAD,2023-02-01 13:19:14,15.08839499,0.0002151,53.213,231.4847,94.6907,265.4331,3.0472e-05,1.97e-06,0.0,0 STARLINK-3799,1 52382U 22045BD  23032.55502651  .00000197  00000-0  30472-4 0  9999,2 52382  53.2130 231.4847 0002151  94.6907 265.4331 15.08839499 45019,6917.882,95.438,541.235,538.259,0.0
52382.0,STARLINK-3799,PAYLOAD,2023-02-01 19:40:46,15.08839329,0.0002121,53.2131,230.2957,92.0786,268.0449,2.541e-05,1.16e-06,0.0,0 STARLINK-3799,1 52382U 22045BD  23032.81998678  .00000116  00000-0  25410-4 0  9993,2 52382  53.2131 230.2957 0002121  92.0786 268.0449 15.08839329 45058,6917.882,95.438,541.215,538.28,0.0
52382.0,STARLINK-3799,PAYLOAD,2023-02-03 05:03:52,15.08839147,0.0002157,53.2129,224.0505,92.7439,267.38,4.7636e-05,4.7e-06,0.0,0 STARLINK-3799,1 52382U 22045BD  23034.21102667  .00000470  00000-0  47636-4 0  9991,2 52382  53.2129 224.0505 0002157  92.7439 267.3800 15.08839147 45260,6917.883,95.438,541.24,538.256,0.0
52382.0,STARLINK-3799,PAYLOAD,2023-02-03 13:00:48,15.08834078,0.0002245,53.2125,222.5636,94.1841,265.9407,1.0248e-05,-1.25e-06,0.0,0 STARLINK-3799,1 52382U 22045BD  23034.54223157 -.00000125  00000-0  10248-4 0  9992,2 52382  53.2125 222.5636 0002245  94.1841 265.9407 15.08834078 45316,6917.898,95.438,541.317,538.21,0.0
52382.0,STARLINK-3799,PAYLOAD,2023-02-04 12:51:35,15.08842055,0.0002172,53.2134,218.1021,93.363,266.7611,5.3366e-05,5.61e-06,0.0,0 STARLINK-3799,1 52382U 22045BD  23035.53582678  .00000561  00000-0  53366-4 0  9999,2 52382  53.2134 218.1021 0002172  93.3630 266.7611 15.08842055 45467,6917.874,95.437,541.242,538.237,0.0
52382.0,STARLINK-3799,PAYLOAD,2023-02-04 20:48:30,15.08845344,0.0002119,53.2137,216.6153,92.9595,267.164,7.5229e-05,9.09e-06,0.0,0 STARLINK-3799,1 52382U 22045BD  23035.86702329  .00000909  00000-0  75229-4 0  9990,2 52382  53.2137 216.6153 0002119  92.9595 267.1640 15.08845344 45512,6917.864,95.437,541.195,538.263,0.0
52382.0,STARLINK-3799,PAYLOAD,2023-02-05 12:42:23,15.08829566,0.0002077,53.2147,213.6417,93.5426,266.5804,3.2409e-05,2.27e-06,0.0,0 STARLINK-3799,1 52382U 22045BD  23036.52943591  .00000227  00000-0  32409-4 0  9998,2 52382  53.2147 213.6417 0002077  93.5426 266.5804 15.08829566 45610,6917.912,95.438,541.214,538.34,0.0
52382.0,STARLINK-3799,PAYLOAD,2023-02-05 20:39:18,15.08834337,0.0002016,53.2146,212.1548,92.5849,267.5374,2.446e-05,1.01e-06,0.0,0 STARLINK-3799,1 52382U 22045BD  23036.86063431  .00000101  00000-0  24460-4 0  9990,2 52382  53.2146 212.1548 0002016  92.5849 267.5374 15.08834337 45669,6917.898,95.438,541.157,538.368,0.0
52382.0,STARLINK-3799,PAYLOAD,2023-02-06 04:36:14,15.08838118,0.0002019,53.2148,210.6679,91.0478,269.0745,3.6321e-05,2.9e-06,0.0,0 STARLINK-3799,1 52382U 22045BD  23037.19183284  .00000290  00000-0  36321-4 0  9994,2 52382  53.2148 210.6679 0002019  91.0478 269.0745 15.08838118 45710,6917.886,95.438,541.148,538.354,0.0
52382.0,STARLINK-3799,PAYLOAD,2023-02-06 12:33:09,15.08842392,0.0002008,53.2151,209.1812,91.4027,268.7195,5.3238e-05,5.59e-06,0.0,0 STARLINK-3799,1 52382U 22045BD  23037.52302990  .00000559  00000-0  53238-4 0  9992,2 52382  53.2151 209.1812 0002008  91.4027 268.7195 15.08842392 45767,6917.873,95.437,541.127,538.349,0.0
52382.0,STARLINK-3799,PAYLOAD,2023-02-06 20:30:04,15.08850125,0.0002014,53.2154,207.6941,91.2536,268.8687,7.1713e-05,8.54e-06,0.0,0 STARLINK-3799,1 52382U 22045BD  23037.85422381  .00000854  00000-0  71713-4 0  9991,2 52382  53.2154 207.6941 0002014  91.2536 268.8687 15.08850125 45812,6917.849,95.437,541.108,538.321,0.0
52382.0,STARLINK-3799,PAYLOAD,2023-02-07 04:27:01,15.08842451,0.0002045,53.2151,206.2066,88.2695,271.8531,-8.7912e-08,-2.9e-06,0.0,0 STARLINK-3799,1 52382U 22045BD  23038.18543016 -.00000290  00000-0 -87912-7 0  9994,2 52382  53.2151 206.2066 0002045  88.2695 271.8531 15.08842451 45868,6917.873,95.437,541.153,538.323,0.0
52382.0,STARLINK-3799,PAYLOAD,2023-02-07 10:48:33,15.08836455,0.0002019,53.2149,205.0174,87.9253,272.197,0.00010979,1.459e-05,0.0,0 STARLINK-3799,1 52382U 22045BD  23038.45039155  .00001459  00000-0  10979-3 0  9999,2 52382  53.2149 205.0174 0002019  87.9253 272.1970 15.08836455 45902,6917.891,95.438,541.153,538.36,0.0
52382.0,STARLINK-3799,PAYLOAD,2023-02-07 18:45:29,15.08845256,0.0002,53.2149,203.5304,88.3353,271.7868,0.00013641,1.884e-05,0.0,0 STARLINK-3799,1 52382U 22045BD  23038.78158615  .00001884  00000-0  13641-3 0  9999,2 52382  53.2149 203.5304 0002000  88.3353 271.7868 15.08845256 45951,6917.864,95.437,541.113,538.346,0.0
52382.0,STARLINK-3799,PAYLOAD,2023-02-08 10:39:20,15.08839663,0.0001922,53.2149,200.5553,92.3632,267.758,8.6776e-05,1.093e-05,0.0,0 STARLINK-3799,1 52382U 22045BD  23039.44398986  .00001093  00000-0  86776-4 0  9992,2 52382  53.2149 200.5553 0001922  92.3632 267.7580 15.08839663 46054,6917.881,95.438,541.076,538.417,0.0
52382.0,STARLINK-3799,PAYLOAD,2023-02-08 18:36:15,15.0885024,0.0001974,53.2146,199.0684,99.4196,260.7019,2.7823e-05,1.55e-06,0.0,0 STARLINK-3799,1 52382U 22045BD  23039.77518381  .00000155  00000-0  27823-4 0  9997,2 52382  53.2146 199.0684 0001974  99.4196 260.7019 15.08850240 46108,6917.849,95.437,541.08,538.349,0.0
52382.0,STARLINK-3799,PAYLOAD,2023-02-09 04:08:34,15.08844054,0.0001667,53.2158,197.2826,105.6083,254.5093,1.7525e-05,-9e-08,0.0,0 STARLINK-3799,1 52382U 22045BD  23040.17262636 -.00000009  00000-0  17525-4 0  9999,2 52382  53.2158 197.2826 0001667 105.6083 254.5093 15.08844054 46168,6917.868,95.437,540.886,538.58,0.0
52382.0,STARLINK-3799,PAYLOAD,2023-02-09 10:30:07,15.08840793,0.0001946,53.214,196.0958,92.4656,267.6559,5.1041e-05,5.24e-06,0.0,0 STARLINK-3799,1 52382U 22045BD  23040.43758993  .00000524  00000-0  51041-4 0  9996,2 52382  53.2140 196.0958 0001946  92.4656 267.6559 15.08840793 46204,6917.878,95.438,541.089,538.397,0.0
52382.0,STARLINK-3799,PAYLOAD,2023-02-09 13:40:53,15.08842571,0.000188,53.2135,195.5014,93.9474,266.1733,7.3956e-05,8.89e-06,0.0,0 STARLINK-3799,1 52382U 22045BD  23040.57006802  .00000889  00000-0  73956-4 0  9999,2 52382  53.2135 195.5014 0001880  93.9474 266.1733 15.08842571 46222,6917.873,95.437,541.038,538.437,0.0
52382.0,STARLINK-3799,PAYLOAD,2023-02-10 08:45:31,15.08834176,0.0001685,53.2153,191.9335,94.8428,265.2756,0.00010398,1.367e-05,0.0,0 STARLINK-3799,1 52382U 22045BD  23041.36495356  .00001367  00000-0  10398-3 0  9995,2 52382  53.2153 191.9335 0001685  94.8428 265.2756 15.08834176 46340,6917.898,95.438,540.929,538.598,0.0
52382.0,STARLINK-3799,PAYLOAD,2023-02-10 16:42:27,15.08843471,0.0001585,53.2149,190.4446,96.9732,263.144,5.2745e-05,5.52e-06,0.0,0 STARLINK-3799,1 52382U 22045BD  23041.69614887  .00000552  00000-0  52745-4 0  9991,2 52382  53.2149 190.4446 0001585  96.9732 263.1440 15.08843471 46392,6917.87,95.437,540.831,538.638,0.0
52382.0,STARLINK-3799,PAYLOAD,2023-02-11 10:11:42,15.08831532,0.0001663,53.2158,187.177,87.7573,272.3609,7.3463e-05,8.81e-06,0.0,0 STARLINK-3799,1 52382U 22045BD  23042.42479904  .00000881  00000-0  73463-4 0  9997,2 52382  53.2158 187.1770 0001663  87.7573 272.3609 15.08831532 46500,6917.906,95.438,540.922,538.621,0.0
52382.0,STARLINK-3799,PAYLOAD,2023-02-11 19:44:00,15.08846994,0.0001304,53.2151,185.3905,82.6945,277.4195,0.00011304,1.512e-05,0.0,0 STARLINK-3799,1 52382U 22045BD  23042.82222763  .00001512  00000-0  11304-3 0  9997,2 52382  53.2151 185.3905 0001304  82.6945 277.4195 15.08846994 46562,6917.859,95.437,540.626,538.822,0.0
52382.0,STARLINK-3799,PAYLOAD,2023-02-12 10:02:29,15.08838334,0.0001363,53.2157,182.7134,84.8997,275.2151,7.4826e-05,9.03e-06,0.0,0 STARLINK-3799,1 52382U 22045BD  23043.41839555  .00000903  00000-0  74826-4 0  9998,2 52382  53.2157 182.7134 0001363  84.8997 275.2151 15.08838334 46656,6917.885,95.438,540.693,538.808,0.0
52382.0,STARLINK-3799,PAYLOAD,2023-02-12 19:34:46,15.08858344,0.0001608,53.2152,180.9306,77.8788,282.2384,0.0002402,3.539e-05,0.0,0 STARLINK-3799,1 52382U 22045BD  23043.81581685  .00003539  00000-0  24020-3 0  9998,2 52382  53.2152 180.9306 0001608  77.8788 282.2384 15.08858344 46710,6917.824,95.436,540.802,538.577,0.0
